[{"OBJECT_NAME":"GRUS-3ALPHA","OBJECT_ID":"2025-135BD","EPOCH":"2026-03-09T23:10:13.111392","MEAN_MOTION":14.92826642,"ECCENTRICITY":0.00023593,"INCLINATION":97.7632,"RA_OF_ASC_NODE":184.4611,"ARG_OF_PERICENTER":350.2474,"MEAN_ANOMALY":9.8699,"EPHEMERIS_TYPE":0,"CLASSIFICATION_TYPE":"U","NORAD_CAT_ID":64579,"ELEMENT_SET_NO":999,"REV_AT_EPOCH":3907,"BSTAR":0.00014972204,"MEAN_MOTION_DOT":1.493e-5,"MEAN_MOTION_DDOT":0},{"OBJECT_NAME":"FENGYUN 1C DEB","OBJECT_ID":"1999-025CAM","EPOCH":"2026-03-04T00:44:57.502176","MEAN_MOTION":14.82331447,"ECCENTRICITY":0.005164,"INCLINATION":99.343,"RA_OF_ASC_NODE":351.5671,"ARG_OF_PERICENTER":69.0134,"MEAN_ANOMALY":291.6589,"EPHEMERIS_TYPE":0,"CLASSIFICATION_TYPE":"U","NORAD_CAT_ID":31631,"ELEMENT_SET_NO":999,"REV_AT_EPOCH":65172,"BSTAR":0.012411752,"MEAN_MOTION_DOT":0.00102974,"MEAN_MOTION_DDOT":0}]
